YUZGU 9 (RS3S)          
1 53308U 98067TT  22251.62638964  .00045744  00000+0  71396-3 0  9997
2 53308  51.6402 282.6555 0000659 138.2789 221.8251 15.53357403  7677
YUZGU 7 (RS1S)          
1 53309U 98067TU  22251.81776259  .00046690  00000+0  72548-3 0  9990
2 53309  51.6399 281.6822 0000648 226.4401 133.6535 15.53472063  7651
YUZGU 11 (RS5S)         
1 53310U 98067TV  22251.62603144  .00044421  00000+0  69394-3 0  9998
2 53310  51.6403 282.6538 0000481 233.3808 126.7138 15.53345383  7653
IHI-SAT                 
1 52147U 98067TJ  22251.60026512  .00091300  00000+0  93992-3 0  9990
2 52147  51.6342 274.9563 0001060 348.6430  11.4541 15.64088361 26290
KITSUNE                 
1 52148U 98067TK  22251.59906310  .00036214  00000+0  47181-3 0  9994
2 52148  51.6415 277.7952 0001705 208.0380 243.8318 15.58369025 26198
CREW DRAGON 4           
1 52318U 22042A   22251.51112429  .00007523  00000+0  13918-3 0  9997
2 52318  51.6441 283.7868 0002647 207.1553 316.3696 15.50098625358108
TIANZHOU-4              
1 52509U 22050A   22251.20806713  .00024274  00000+0  27026-3 0  9997
2 52509  41.4714  73.1771 0006551 276.9484  58.3478 15.62253592 77747
PROGRESS-MS 20          
1 52795U 22059A   22251.51112429  .00007523  00000+0  13918-3 0  9994
2 52795  51.6441 283.7868 0002647 207.1553 316.3696 15.50098625358107
SHENZHOU 14             
1 52797U 22060A   22251.20806713  .00024274  00000+0  27026-3 0  9997
2 52797  41.4714  73.1771 0006551 276.9484  58.3478 15.62253592 77746
ISS DEB                 
1 52952U 98067TP  22251.79182681  .00063656  00000+0  87811-3 0  9990
2 52952  51.6398 280.7703 0001035 288.5365  71.5514 15.56587867 10552
CSS (WENTIAN)           
1 53239U 22085A   22251.20806713  .00024274  00000+0  27026-3 0  9996
2 53239  41.4714  73.1771 0006551 276.9484  58.3478 15.62253592 77748
1998-067TQ              
1 53305U 98067TQ  22251.63480584  .00040878  00000+0  64929-3 0  9995
2 53305  51.6403 282.7107 0001088 191.6308 168.4658 15.52922890  7614
YUZGU 8                 
1 53306U 98067TR  22251.62690037  .00045223  00000+0  70531-3 0  9996
2 53306  51.6403 282.6592 0000436 180.7480 179.3509 15.53382721  7618
1998-067TS              
1 53307U 98067TS  22251.81952291  .00045208  00000+0  70456-3 0  9990
2 53307  51.6400 281.6938 0000889 143.7944 216.3107 15.53403665  7678
