[{
    "OBJECT_NAME": "IHI-SAT",
    "OBJECT_ID": "1998-067TJ",
    "EPOCH": "2022-09-08T14:24:22.906368",
    "MEAN_MOTION": 15.64088361,
    "ECCENTRICITY": 0.000106,
    "INCLINATION": 51.6342,
    "RA_OF_ASC_NODE": 274.9563,
    "ARG_OF_PERICENTER": 348.643,
    "MEAN_ANOMALY": 11.4541,
    "EPHEMERIS_TYPE": 0,
    "CLASSIFICATION_TYPE": "U",
    "NORAD_CAT_ID": 52147,
    "ELEMENT_SET_NO": 999,
    "REV_AT_EPOCH": 2629,
    "BSTAR": 0.00093992,
    "MEAN_MOTION_DOT": 0.000913,
    "MEAN_MOTION_DDOT": 0
},{
    "OBJECT_NAME": "KITSUNE",
    "OBJECT_ID": "1998-067TK",
    "EPOCH": "2022-09-08T14:22:39.051840",
    "MEAN_MOTION": 15.58369025,
    "ECCENTRICITY": 0.0001705,
    "INCLINATION": 51.6415,
    "RA_OF_ASC_NODE": 277.7952,
    "ARG_OF_PERICENTER": 208.038,
    "MEAN_ANOMALY": 243.8318,
    "EPHEMERIS_TYPE": 0,
    "CLASSIFICATION_TYPE": "U",
    "NORAD_CAT_ID": 52148,
    "ELEMENT_SET_NO": 999,
    "REV_AT_EPOCH": 2619,
    "BSTAR": 0.00047181,
    "MEAN_MOTION_DOT": 0.00036214,
    "MEAN_MOTION_DDOT": 0
},{
    "OBJECT_NAME": "CREW DRAGON 4",
    "OBJECT_ID": "2022-042A",
    "EPOCH": "2022-09-08T12:16:01.138656",
    "MEAN_MOTION": 15.50098625,
    "ECCENTRICITY": 0.0002647,
    "INCLINATION": 51.6441,
    "RA_OF_ASC_NODE": 283.7868,
    "ARG_OF_PERICENTER": 207.1553,
    "MEAN_ANOMALY": 316.3696,
    "EPHEMERIS_TYPE": 0,
    "CLASSIFICATION_TYPE": "U",
    "NORAD_CAT_ID": 52318,
    "ELEMENT_SET_NO": 999,
    "REV_AT_EPOCH": 35810,
    "BSTAR": 0.00013918,
    "MEAN_MOTION_DOT": 7.523e-5,
    "MEAN_MOTION_DDOT": 0
},{
    "OBJECT_NAME": "TIANZHOU-4",
    "OBJECT_ID": "2022-050A",
    "EPOCH": "2022-09-08T04:59:37.000032",
    "MEAN_MOTION": 15.62253592,
    "ECCENTRICITY": 0.0006551,
    "INCLINATION": 41.4714,
    "RA_OF_ASC_NODE": 73.1771,
    "ARG_OF_PERICENTER": 276.9484,
    "MEAN_ANOMALY": 58.3478,
    "EPHEMERIS_TYPE": 0,
    "CLASSIFICATION_TYPE": "U",
    "NORAD_CAT_ID": 52509,
    "ELEMENT_SET_NO": 999,
    "REV_AT_EPOCH": 7774,
    "BSTAR": 0.00027026,
    "MEAN_MOTION_DOT": 0.00024274,
    "MEAN_MOTION_DDOT": 0
},{
    "OBJECT_NAME": "PROGRESS-MS 20",
    "OBJECT_ID": "2022-059A",
    "EPOCH": "2022-09-08T12:16:01.138656",
    "MEAN_MOTION": 15.50098625,
    "ECCENTRICITY": 0.0002647,
    "INCLINATION": 51.6441,
    "RA_OF_ASC_NODE": 283.7868,
    "ARG_OF_PERICENTER": 207.1553,
    "MEAN_ANOMALY": 316.3696,
    "EPHEMERIS_TYPE": 0,
    "CLASSIFICATION_TYPE": "U",
    "NORAD_CAT_ID": 52795,
    "ELEMENT_SET_NO": 999,
    "REV_AT_EPOCH": 35810,
    "BSTAR": 0.00013918,
    "MEAN_MOTION_DOT": 7.523e-5,
    "MEAN_MOTION_DDOT": 0
},{
    "OBJECT_NAME": "SHENZHOU 14",
    "OBJECT_ID": "2022-060A",
    "EPOCH": "2022-09-08T04:59:37.000032",
    "MEAN_MOTION": 15.62253592,
    "ECCENTRICITY": 0.0006551,
    "INCLINATION": 41.4714,
    "RA_OF_ASC_NODE": 73.1771,
    "ARG_OF_PERICENTER": 276.9484,
    "MEAN_ANOMALY": 58.3478,
    "EPHEMERIS_TYPE": 0,
    "CLASSIFICATION_TYPE": "U",
    "NORAD_CAT_ID": 52797,
    "ELEMENT_SET_NO": 999,
    "REV_AT_EPOCH": 7774,
    "BSTAR": 0.00027026,
    "MEAN_MOTION_DOT": 0.00024274,
    "MEAN_MOTION_DDOT": 0
},{
    "OBJECT_NAME": "ISS DEB",
    "OBJECT_ID": "1998-067TP",
    "EPOCH": "2022-09-08T19:00:13.836384",
    "MEAN_MOTION": 15.56587867,
    "ECCENTRICITY": 0.0001035,
    "INCLINATION": 51.6398,
    "RA_OF_ASC_NODE": 280.7703,
    "ARG_OF_PERICENTER": 288.5365,
    "MEAN_ANOMALY": 71.5514,
    "EPHEMERIS_TYPE": 0,
    "CLASSIFICATION_TYPE": "U",
    "NORAD_CAT_ID": 52952,
    "ELEMENT_SET_NO": 999,
    "REV_AT_EPOCH": 1055,
    "BSTAR": 0.00087811,
    "MEAN_MOTION_DOT": 0.00063656,
    "MEAN_MOTION_DDOT": 0
},{
    "OBJECT_NAME": "CSS (WENTIAN)",
    "OBJECT_ID": "2022-085A",
    "EPOCH": "2022-09-08T04:59:37.000032",
    "MEAN_MOTION": 15.62253592,
    "ECCENTRICITY": 0.0006551,
    "INCLINATION": 41.4714,
    "RA_OF_ASC_NODE": 73.1771,
    "ARG_OF_PERICENTER": 276.9484,
    "MEAN_ANOMALY": 58.3478,
    "EPHEMERIS_TYPE": 0,
    "CLASSIFICATION_TYPE": "U",
    "NORAD_CAT_ID": 53239,
    "ELEMENT_SET_NO": 999,
    "REV_AT_EPOCH": 7774,
    "BSTAR": 0.00027026,
    "MEAN_MOTION_DOT": 0.00024274,
    "MEAN_MOTION_DDOT": 0
},{
    "OBJECT_NAME": "1998-067TQ",
    "OBJECT_ID": "1998-067TQ",
    "EPOCH": "2022-09-08T15:14:07.224576",
    "MEAN_MOTION": 15.5292289,
    "ECCENTRICITY": 0.0001088,
    "INCLINATION": 51.6403,
    "RA_OF_ASC_NODE": 282.7107,
    "ARG_OF_PERICENTER": 191.6308,
    "MEAN_ANOMALY": 168.4658,
    "EPHEMERIS_TYPE": 0,
    "CLASSIFICATION_TYPE": "U",
    "NORAD_CAT_ID": 53305,
    "ELEMENT_SET_NO": 999,
    "REV_AT_EPOCH": 761,
    "BSTAR": 0.00064929,
    "MEAN_MOTION_DOT": 0.00040878,
    "MEAN_MOTION_DDOT": 0
},{
    "OBJECT_NAME": "YUZGU 8",
    "OBJECT_ID": "1998-067TR",
    "EPOCH": "2022-09-08T15:02:44.191968",
    "MEAN_MOTION": 15.53382721,
    "ECCENTRICITY": 4.36e-5,
    "INCLINATION": 51.6403,
    "RA_OF_ASC_NODE": 282.6592,
    "ARG_OF_PERICENTER": 180.748,
    "MEAN_ANOMALY": 179.3509,
    "EPHEMERIS_TYPE": 0,
    "CLASSIFICATION_TYPE": "U",
    "NORAD_CAT_ID": 53306,
    "ELEMENT_SET_NO": 999,
    "REV_AT_EPOCH": 761,
    "BSTAR": 0.00070531,
    "MEAN_MOTION_DOT": 0.00045223,
    "MEAN_MOTION_DDOT": 0
},{
    "OBJECT_NAME": "1998-067TS",
    "OBJECT_ID": "1998-067TS",
    "EPOCH": "2022-09-08T19:40:06.779424",
    "MEAN_MOTION": 15.53403665,
    "ECCENTRICITY": 8.89e-5,
    "INCLINATION": 51.64,
    "RA_OF_ASC_NODE": 281.6938,
    "ARG_OF_PERICENTER": 143.7944,
    "MEAN_ANOMALY": 216.3107,
    "EPHEMERIS_TYPE": 0,
    "CLASSIFICATION_TYPE": "U",
    "NORAD_CAT_ID": 53307,
    "ELEMENT_SET_NO": 999,
    "REV_AT_EPOCH": 767,
    "BSTAR": 0.00070456,
    "MEAN_MOTION_DOT": 0.00045208,
    "MEAN_MOTION_DDOT": 0
},{
    "OBJECT_NAME": "YUZGU 9 (RS3S)",
    "OBJECT_ID": "1998-067TT",
    "EPOCH": "2022-09-08T15:02:00.064896",
    "MEAN_MOTION": 15.53357403,
    "ECCENTRICITY": 6.59e-5,
    "INCLINATION": 51.6402,
    "RA_OF_ASC_NODE": 282.6555,
    "ARG_OF_PERICENTER": 138.2789,
    "MEAN_ANOMALY": 221.8251,
    "EPHEMERIS_TYPE": 0,
    "CLASSIFICATION_TYPE": "U",
    "NORAD_CAT_ID": 53308,
    "ELEMENT_SET_NO": 999,
    "REV_AT_EPOCH": 767,
    "BSTAR": 0.00071396,
    "MEAN_MOTION_DOT": 0.00045744,
    "MEAN_MOTION_DDOT": 0
},{
    "OBJECT_NAME": "YUZGU 7 (RS1S)",
    "OBJECT_ID": "1998-067TU",
    "EPOCH": "2022-09-08T19:37:34.687776",
    "MEAN_MOTION": 15.53472063,
    "ECCENTRICITY": 6.48e-5,
    "INCLINATION": 51.6399,
    "RA_OF_ASC_NODE": 281.6822,
    "ARG_OF_PERICENTER": 226.4401,
    "MEAN_ANOMALY": 133.6535,
    "EPHEMERIS_TYPE": 0,
    "CLASSIFICATION_TYPE": "U",
    "NORAD_CAT_ID": 53309,
    "ELEMENT_SET_NO": 999,
    "REV_AT_EPOCH": 765,
    "BSTAR": 0.00072548,
    "MEAN_MOTION_DOT": 0.0004669,
    "MEAN_MOTION_DDOT": 0
},{
    "OBJECT_NAME": "YUZGU 11 (RS5S)",
    "OBJECT_ID": "1998-067TV",
    "EPOCH": "2022-09-08T15:01:29.116416",
    "MEAN_MOTION": 15.53345383,
    "ECCENTRICITY": 4.81e-5,
    "INCLINATION": 51.6403,
    "RA_OF_ASC_NODE": 282.6538,
    "ARG_OF_PERICENTER": 233.3808,
    "MEAN_ANOMALY": 126.7138,
    "EPHEMERIS_TYPE": 0,
    "CLASSIFICATION_TYPE": "U",
    "NORAD_CAT_ID": 53310,
    "ELEMENT_SET_NO": 999,
    "REV_AT_EPOCH": 765,
    "BSTAR": 0.00069394,
    "MEAN_MOTION_DOT": 0.00044421,
    "MEAN_MOTION_DDOT": 0
}]
